<?xml version="1.0" encoding="UTF-8"?>
<ndm xmlns:xsi="http://www.w3.org/2001/XMLSchema-instance" xsi:noNamespaceSchemaLocation="https://sanaregistry.org/r/ndmxml_unqualified/ndmxml-2.0.0-master-2.0.xsd">
<omm id="CCSDS_OMM_VERS" version="2.0">
<header><CREATION_DATE/><ORIGINATOR/></header><body><segment><metadata><OBJECT_NAME>ONEWEB-0173</OBJECT_NAME><OBJECT_ID>2021-025AD</OBJECT_ID><CENTER_NAME>EARTH</CENTER_NAME><REF_FRAME>TEME</REF_FRAME><TIME_SYSTEM>UTC</TIME_SYSTEM><MEAN_ELEMENT_THEORY>SGP4</MEAN_ELEMENT_THEORY></metadata><data><meanElements><EPOCH>2026-01-01T10:57:48.810816</EPOCH><MEAN_MOTION>13.13469074</MEAN_MOTION><ECCENTRICITY>.0001298</ECCENTRICITY><INCLINATION>87.8992</INCLINATION><RA_OF_ASC_NODE>353.3541</RA_OF_ASC_NODE><ARG_OF_PERICENTER>88.3416</ARG_OF_PERICENTER><MEAN_ANOMALY>271.7862</MEAN_ANOMALY></meanElements><tleParameters><EPHEMERIS_TYPE>0</EPHEMERIS_TYPE><CLASSIFICATION_TYPE>U</CLASSIFICATION_TYPE><NORAD_CAT_ID>48069</NORAD_CAT_ID><ELEMENT_SET_NO>999</ELEMENT_SET_NO><REV_AT_EPOCH>23191</REV_AT_EPOCH><BSTAR>-.67935E-3</BSTAR><MEAN_MOTION_DOT>-.235E-5</MEAN_MOTION_DOT><MEAN_MOTION_DDOT>0</MEAN_MOTION_DDOT></tleParameters></data></segment></body></omm>
<omm id="CCSDS_OMM_VERS" version="2.0">
<header><CREATION_DATE/><ORIGINATOR/></header><body><segment><metadata><OBJECT_NAME>ONEWEB-0171</OBJECT_NAME><OBJECT_ID>2021-025AE</OBJECT_ID><CENTER_NAME>EARTH</CENTER_NAME><REF_FRAME>TEME</REF_FRAME><TIME_SYSTEM>UTC</TIME_SYSTEM><MEAN_ELEMENT_THEORY>SGP4</MEAN_ELEMENT_THEORY></metadata><data><meanElements><EPOCH>2026-01-01T11:51:27.093312</EPOCH><MEAN_MOTION>13.13469301</MEAN_MOTION><ECCENTRICITY>.0001605</ECCENTRICITY><INCLINATION>87.8979</INCLINATION><RA_OF_ASC_NODE>353.3660</RA_OF_ASC_NODE><ARG_OF_PERICENTER>81.8162</ARG_OF_PERICENTER><MEAN_ANOMALY>278.3149</MEAN_ANOMALY></meanElements><tleParameters><EPHEMERIS_TYPE>0</EPHEMERIS_TYPE><CLASSIFICATION_TYPE>U</CLASSIFICATION_TYPE><NORAD_CAT_ID>48070</NORAD_CAT_ID><ELEMENT_SET_NO>999</ELEMENT_SET_NO><REV_AT_EPOCH>23173</REV_AT_EPOCH><BSTAR>.96134E-3</BSTAR><MEAN_MOTION_DOT>.364E-5</MEAN_MOTION_DOT><MEAN_MOTION_DDOT>0</MEAN_MOTION_DDOT></tleParameters></data></segment></body></omm>
<omm id="CCSDS_OMM_VERS" version="2.0">
<header><CREATION_DATE/><ORIGINATOR/></header><body><segment><metadata><OBJECT_NAME>ONEWEB-0172</OBJECT_NAME><OBJECT_ID>2021-025AF</OBJECT_ID><CENTER_NAME>EARTH</CENTER_NAME><REF_FRAME>TEME</REF_FRAME><TIME_SYSTEM>UTC</TIME_SYSTEM><MEAN_ELEMENT_THEORY>SGP4</MEAN_ELEMENT_THEORY></metadata><data><meanElements><EPOCH>2026-01-01T09:32:29.598720</EPOCH><MEAN_MOTION>13.13469773</MEAN_MOTION><ECCENTRICITY>.0001561</ECCENTRICITY><INCLINATION>87.8987</INCLINATION><RA_OF_ASC_NODE>353.3704</RA_OF_ASC_NODE><ARG_OF_PERICENTER>86.4308</ARG_OF_PERICENTER><MEAN_ANOMALY>273.6999</MEAN_ANOMALY></meanElements><tleParameters><EPHEMERIS_TYPE>0</EPHEMERIS_TYPE><CLASSIFICATION_TYPE>U</CLASSIFICATION_TYPE><NORAD_CAT_ID>48071</NORAD_CAT_ID><ELEMENT_SET_NO>999</ELEMENT_SET_NO><REV_AT_EPOCH>23261</REV_AT_EPOCH><BSTAR>-.1912E-3</BSTAR><MEAN_MOTION_DOT>-.57E-6</MEAN_MOTION_DOT><MEAN_MOTION_DDOT>0</MEAN_MOTION_DDOT></tleParameters></data></segment></body></omm>
<omm id="CCSDS_OMM_VERS" version="2.0">
<header><CREATION_DATE/><ORIGINATOR/></header><body><segment><metadata><OBJECT_NAME>ONEWEB-0174</OBJECT_NAME><OBJECT_ID>2021-025AG</OBJECT_ID><CENTER_NAME>EARTH</CENTER_NAME><REF_FRAME>TEME</REF_FRAME><TIME_SYSTEM>UTC</TIME_SYSTEM><MEAN_ELEMENT_THEORY>SGP4</MEAN_ELEMENT_THEORY></metadata><data><meanElements><EPOCH>2026-01-01T10:55:22.717920</EPOCH><MEAN_MOTION>13.13469214</MEAN_MOTION><ECCENTRICITY>.0001707</ECCENTRICITY><INCLINATION>87.8982</INCLINATION><RA_OF_ASC_NODE>353.3614</RA_OF_ASC_NODE><ARG_OF_PERICENTER>92.3514</ARG_OF_PERICENTER><MEAN_ANOMALY>267.7811</MEAN_ANOMALY></meanElements><tleParameters><EPHEMERIS_TYPE>0</EPHEMERIS_TYPE><CLASSIFICATION_TYPE>U</CLASSIFICATION_TYPE><NORAD_CAT_ID>48072</NORAD_CAT_ID><ELEMENT_SET_NO>999</ELEMENT_SET_NO><REV_AT_EPOCH>23194</REV_AT_EPOCH><BSTAR>-.71831E-3</BSTAR><MEAN_MOTION_DOT>-.25E-5</MEAN_MOTION_DOT><MEAN_MOTION_DDOT>0</MEAN_MOTION_DDOT></tleParameters></data></segment></body></omm>
<omm id="CCSDS_OMM_VERS" version="2.0">
<header><CREATION_DATE/><ORIGINATOR/></header><body><segment><metadata><OBJECT_NAME>ONEWEB-0175</OBJECT_NAME><OBJECT_ID>2021-025AH</OBJECT_ID><CENTER_NAME>EARTH</CENTER_NAME><REF_FRAME>TEME</REF_FRAME><TIME_SYSTEM>UTC</TIME_SYSTEM><MEAN_ELEMENT_THEORY>SGP4</MEAN_ELEMENT_THEORY></metadata><data><meanElements><EPOCH>2026-01-01T11:39:15.503904</EPOCH><MEAN_MOTION>13.13469292</MEAN_MOTION><ECCENTRICITY>.0001607</ECCENTRICITY><INCLINATION>87.8990</INCLINATION><RA_OF_ASC_NODE>353.3256</RA_OF_ASC_NODE><ARG_OF_PERICENTER>74.2775</ARG_OF_PERICENTER><MEAN_ANOMALY>285.8531</MEAN_ANOMALY></meanElements><tleParameters><EPHEMERIS_TYPE>0</EPHEMERIS_TYPE><CLASSIFICATION_TYPE>U</CLASSIFICATION_TYPE><NORAD_CAT_ID>48073</NORAD_CAT_ID><ELEMENT_SET_NO>999</ELEMENT_SET_NO><REV_AT_EPOCH>23160</REV_AT_EPOCH><BSTAR>.44618E-3</BSTAR><MEAN_MOTION_DOT>.176E-5</MEAN_MOTION_DOT><MEAN_MOTION_DDOT>0</MEAN_MOTION_DDOT></tleParameters></data></segment></body></omm>
<omm id="CCSDS_OMM_VERS" version="2.0">
<header><CREATION_DATE/><ORIGINATOR/></header><body><segment><metadata><OBJECT_NAME>ONEWEB-0177</OBJECT_NAME><OBJECT_ID>2021-025AJ</OBJECT_ID><CENTER_NAME>EARTH</CENTER_NAME><REF_FRAME>TEME</REF_FRAME><TIME_SYSTEM>UTC</TIME_SYSTEM><MEAN_ELEMENT_THEORY>SGP4</MEAN_ELEMENT_THEORY></metadata><data><meanElements><EPOCH>2026-01-01T11:56:19.831200</EPOCH><MEAN_MOTION>13.13469145</MEAN_MOTION><ECCENTRICITY>.0001552</ECCENTRICITY><INCLINATION>87.8991</INCLINATION><RA_OF_ASC_NODE>353.3430</RA_OF_ASC_NODE><ARG_OF_PERICENTER>91.3043</ARG_OF_PERICENTER><MEAN_ANOMALY>268.8264</MEAN_ANOMALY></meanElements><tleParameters><EPHEMERIS_TYPE>0</EPHEMERIS_TYPE><CLASSIFICATION_TYPE>U</CLASSIFICATION_TYPE><NORAD_CAT_ID>48074</NORAD_CAT_ID><ELEMENT_SET_NO>999</ELEMENT_SET_NO><REV_AT_EPOCH>23179</REV_AT_EPOCH><BSTAR>.10551E-2</BSTAR><MEAN_MOTION_DOT>.398E-5</MEAN_MOTION_DOT><MEAN_MOTION_DDOT>0</MEAN_MOTION_DDOT></tleParameters></data></segment></body></omm>
<omm id="CCSDS_OMM_VERS" version="2.0">
<header><CREATION_DATE/><ORIGINATOR/></header><body><segment><metadata><OBJECT_NAME>ONEWEB-0178</OBJECT_NAME><OBJECT_ID>2021-025AK</OBJECT_ID><CENTER_NAME>EARTH</CENTER_NAME><REF_FRAME>TEME</REF_FRAME><TIME_SYSTEM>UTC</TIME_SYSTEM><MEAN_ELEMENT_THEORY>SGP4</MEAN_ELEMENT_THEORY></metadata><data><meanElements><EPOCH>2026-01-01T12:23:20.311584</EPOCH><MEAN_MOTION>13.13468243</MEAN_MOTION><ECCENTRICITY>.0001463</ECCENTRICITY><INCLINATION>87.8978</INCLINATION><RA_OF_ASC_NODE>353.3781</RA_OF_ASC_NODE><ARG_OF_PERICENTER>82.3961</ARG_OF_PERICENTER><MEAN_ANOMALY>277.7334</MEAN_ANOMALY></meanElements><tleParameters><EPHEMERIS_TYPE>0</EPHEMERIS_TYPE><CLASSIFICATION_TYPE>U</CLASSIFICATION_TYPE><NORAD_CAT_ID>48075</NORAD_CAT_ID><ELEMENT_SET_NO>999</ELEMENT_SET_NO><REV_AT_EPOCH>23184</REV_AT_EPOCH><BSTAR>-.5064E-4</BSTAR><MEAN_MOTION_DOT>-.6E-7</MEAN_MOTION_DOT><MEAN_MOTION_DDOT>0</MEAN_MOTION_DDOT></tleParameters></data></segment></body></omm>
<omm id="CCSDS_OMM_VERS" version="2.0">
<header><CREATION_DATE/><ORIGINATOR/></header><body><segment><metadata><OBJECT_NAME>ONEWEB-0108</OBJECT_NAME><OBJECT_ID>2021-025AL</OBJECT_ID><CENTER_NAME>EARTH</CENTER_NAME><REF_FRAME>TEME</REF_FRAME><TIME_SYSTEM>UTC</TIME_SYSTEM><MEAN_ELEMENT_THEORY>SGP4</MEAN_ELEMENT_THEORY></metadata><data><meanElements><EPOCH>2026-01-01T11:24:38.312352</EPOCH><MEAN_MOTION>13.13470893</MEAN_MOTION><ECCENTRICITY>.0001901</ECCENTRICITY><INCLINATION>87.8988</INCLINATION><RA_OF_ASC_NODE>353.3369</RA_OF_ASC_NODE><ARG_OF_PERICENTER>88.8385</ARG_OF_PERICENTER><MEAN_ANOMALY>271.2962</MEAN_ANOMALY></meanElements><tleParameters><EPHEMERIS_TYPE>0</EPHEMERIS_TYPE><CLASSIFICATION_TYPE>U</CLASSIFICATION_TYPE><NORAD_CAT_ID>48076</NORAD_CAT_ID><ELEMENT_SET_NO>999</ELEMENT_SET_NO><REV_AT_EPOCH>23176</REV_AT_EPOCH><BSTAR>-.88806E-4</BSTAR><MEAN_MOTION_DOT>-.2E-6</MEAN_MOTION_DOT><MEAN_MOTION_DDOT>0</MEAN_MOTION_DDOT></tleParameters></data></segment></body></omm>
<omm id="CCSDS_OMM_VERS" version="2.0">
<header><CREATION_DATE/><ORIGINATOR/></header><body><segment><metadata><OBJECT_NAME>ONEWEB-0169</OBJECT_NAME><OBJECT_ID>2021-025AM</OBJECT_ID><CENTER_NAME>EARTH</CENTER_NAME><REF_FRAME>TEME</REF_FRAME><TIME_SYSTEM>UTC</TIME_SYSTEM><MEAN_ELEMENT_THEORY>SGP4</MEAN_ELEMENT_THEORY></metadata><data><meanElements><EPOCH>2026-01-01T12:10:56.422272</EPOCH><MEAN_MOTION>13.13468216</MEAN_MOTION><ECCENTRICITY>.0001913</ECCENTRICITY><INCLINATION>87.8983</INCLINATION><RA_OF_ASC_NODE>353.3505</RA_OF_ASC_NODE><ARG_OF_PERICENTER>89.0664</ARG_OF_PERICENTER><MEAN_ANOMALY>271.0684</MEAN_ANOMALY></meanElements><tleParameters><EPHEMERIS_TYPE>0</EPHEMERIS_TYPE><CLASSIFICATION_TYPE>U</CLASSIFICATION_TYPE><NORAD_CAT_ID>48077</NORAD_CAT_ID><ELEMENT_SET_NO>999</ELEMENT_SET_NO><REV_AT_EPOCH>23042</REV_AT_EPOCH><BSTAR>.7182E-3</BSTAR><MEAN_MOTION_DOT>.275E-5</MEAN_MOTION_DOT><MEAN_MOTION_DDOT>0</MEAN_MOTION_DDOT></tleParameters></data></segment></body></omm>

</ndm>
